[{"OBJECT_NAME":"STARLINK-5441","OBJECT_ID":"2022-175AF","EPOCH":"2026-03-09T23:00:52.193952","MEAN_MOTION":15.08825404,"ECCENTRICITY":0.00010426,"INCLINATION":53.2176,"RA_OF_ASC_NODE":42.6299,"ARG_OF_PERICENTER":92.6743,"MEAN_ANOMALY":267.4369,"EPHEMERIS_TYPE":0,"CLASSIFICATION_TYPE":"U","NORAD_CAT_ID":54787,"ELEMENT_SET_NO":999,"REV_AT_EPOCH":17996,"BSTAR":-4.6085012e-5,"MEAN_MOTION_DOT":-1.021e-5,"MEAN_MOTION_DDOT":0},{"OBJECT_NAME":"COSMOS 1275 DEB","OBJECT_ID":"1981-053RH","EPOCH":"2026-03-08T19:02:02.535360","MEAN_MOTION":15.08606043,"ECCENTRICITY":0.00097404,"INCLINATION":83.3308,"RA_OF_ASC_NODE":196.5935,"ARG_OF_PERICENTER":282.896,"MEAN_ANOMALY":77.1182,"EPHEMERIS_TYPE":0,"CLASSIFICATION_TYPE":"U","NORAD_CAT_ID":42145,"ELEMENT_SET_NO":999,"REV_AT_EPOCH":64889,"BSTAR":0.0090120528,"MEAN_MOTION_DOT":0.00143721,"MEAN_MOTION_DDOT":0}]
